{"type": "FeatureCollection", "features": [ {"type": "Feature", "properties": {"norad_id": 39574, "name": "GPM-CORE", "group": "resource", "lat": -54.178385897750196, "lon": 173.1964912312104, "alt_km": 434.81905465573436, "timestamp": "2025-12-12T11:38:31.073239+00:00", "meta": {"OBJECT_NAME": "GPM-CORE", "OBJECT_ID": "2014-009C", "EPOCH": "2025-12-12T04:08:45.508416", "MEAN_MOTION": 15.44450966, "ECCENTRICITY": 0.0009842, "INCLINATION": 64.9735, "RA_OF_ASC_NODE": 214.5785, "ARG_OF_PERICENTER": 245.0797, "MEAN_ANOMALY": 114.9321, "EPHEMERIS_TYPE": 0, "CLASSIFICATION_TYPE": "U", "NORAD_CAT_ID": 39574, "ELEMENT_SET_NO": 999, "REV_AT_EPOCH": 66892, "BSTAR": 0.00025125, "MEAN_MOTION_DOT": 0.00011477, "MEAN_MOTION_DDOT": 0}, "tle": {"line1": "1 39574U 14009C   25346.17274894  .00011477  00000+0  25125-3 0  9991", "line2": "2 39574  64.9735 214.5785 0009842 245.0797 114.9321 15.44450966668929"}}, "geometry": {"type": "Point", "coordinates": [173.1964912312104, -54.178385897750196]}}, {"type": "Feature", "properties": {"norad_id": 39634, "name": "SENTINEL-1A", "group": "resource", "lat": -46.473564269161024, "lon": 163.01918211979583, "alt_km": 703.2391089398134, "timestamp": "2025-12-12T11:38:31.073260+00:00", "meta": {"OBJECT_NAME": "SENTINEL-1A", "OBJECT_ID": "2014-016A", "EPOCH": "2025-12-12T04:01:19.216128", "MEAN_MOTION": 14.59200145, "ECCENTRICITY": 0.0001228, "INCLINATION": 98.1805, "RA_OF_ASC_NODE": 351.4171, "ARG_OF_PERICENTER": 83.7781, "MEAN_ANOMALY": 276.3559, "EPHEMERIS_TYPE": 0, "CLASSIFICATION_TYPE": "U", "NORAD_CAT_ID": 39634, "ELEMENT_SET_NO": 999, "REV_AT_EPOCH": 62274, "BSTAR": 7.6023e-05, "MEAN_MOTION_DOT": 3.13e-06, "MEAN_MOTION_DDOT": 0}, "tle": {"line1": "1 39634U 14016A   25346.16758352  .00000313  00000+0  76023-4 0  9992", "line2": "2 39634  98.1805 351.4171 0001228  83.7781 276.3559 14.59200145622746"}}, "geometry": {"type": "Point", "coordinates": [163.01918211979583, -46.473564269161024]}}, {"type": "Feature", "properties": {"norad_id": 39731, "name": "KAZEOSAT 1", "group": "resource", "lat": -36.85586529220825, "lon": -127.91795160910752, "alt_km": 758.4529742656059, "timestamp": "2025-12-12T11:38:31.073272+00:00", "meta": {"OBJECT_NAME": "KAZEOSAT 1", "OBJECT_ID": "2014-024A", "EPOCH": "2025-12-12T03:58:36.632928", "MEAN_MOTION": 14.42062644, "ECCENTRICITY": 0.0001106, "INCLINATION": 98.343, "RA_OF_ASC_NODE": 58.0854, "ARG_OF_PERICENTER": 95.3956, "MEAN_ANOMALY": 264.736, "EPHEMERIS_TYPE": 0, "CLASSIFICATION_TYPE": "U", "NORAD_CAT_ID": 39731, "ELEMENT_SET_NO": 999, "REV_AT_EPOCH": 61160, "BSTAR": 0.00017378, "MEAN_MOTION_DOT": 5.28e-06, "MEAN_MOTION_DDOT": 0}, "tle": {"line1": "1 39731U 14024A   25346.16570177  .00000528  00000+0  17378-3 0  9991", "line2": "2 39731  98.3430  58.0854 0001106  95.3956 264.7360 14.42062644611602"}}, "geometry": {"type": "Point", "coordinates": [-127.91795160910752, -36.85586529220825]}}, {"type": "Feature", "properties": {"norad_id": 39766, "name": "ALOS-2", "group": "resource", "lat": 65.77104438364313, "lon": 63.31054524676544, "alt_km": 623.7510145645447, "timestamp": "2025-12-12T11:38:31.073283+00:00", "meta": {"OBJECT_NAME": "ALOS-2", "OBJECT_ID": "2014-029A", "EPOCH": "2025-12-12T04:50:50.551872", "MEAN_MOTION": 14.79471728, "ECCENTRICITY": 0.0001383, "INCLINATION": 97.9218, "RA_OF_ASC_NODE": 81.0553, "ARG_OF_PERICENTER": 100.0685, "MEAN_ANOMALY": 260.0683, "EPHEMERIS_TYPE": 0, "CLASSIFICATION_TYPE": "U", "NORAD_CAT_ID": 39766, "ELEMENT_SET_NO": 999, "REV_AT_EPOCH": 62393, "BSTAR": 0.0006594, "MEAN_MOTION_DOT": 4.876e-05, "MEAN_MOTION_DDOT": 0}, "tle": {"line1": "1 39766U 14029A   25346.20197398  .00004876  00000+0  65940-3 0  9997", "line2": "2 39766  97.9218  81.0553 0001383 100.0685 260.0683 14.79471728623934"}}, "geometry": {"type": "Point", "coordinates": [63.31054524676544, 65.77104438364313]}}, {"type": "Feature", "properties": {"norad_id": 40010, "name": "KAZEOSAT 2", "group": "resource", "lat": -27.75575796625868, "lon": -165.18466322555, "alt_km": 621.8854272305098, "timestamp": "2025-12-12T11:38:31.073293+00:00", "meta": {"OBJECT_NAME": "KAZEOSAT 2", "OBJECT_ID": "2014-033A", "EPOCH": "2025-12-12T03:40:59.206656", "MEAN_MOTION": 14.85167987, "ECCENTRICITY": 0.000757, "INCLINATION": 97.5506, "RA_OF_ASC_NODE": 190.4983, "ARG_OF_PERICENTER": 208.7826, "MEAN_ANOMALY": 151.2973, "EPHEMERIS_TYPE": 0, "CLASSIFICATION_TYPE": "U", "NORAD_CAT_ID": 40010, "ELEMENT_SET_NO": 999, "REV_AT_EPOCH": 62119, "BSTAR": 0.00017387, "MEAN_MOTION_DOT": 1.439e-05, "MEAN_MOTION_DDOT": 0}, "tle": {"line1": "1 40010U 14033A   25346.15346304  .00001439  00000+0  17387-3 0  9997", "line2": "2 40010  97.5506 190.4983 0007570 208.7826 151.2973 14.85167987621198"}}, "geometry": {"type": "Point", "coordinates": [-165.18466322555, -27.75575796625868]}}, {"type": "Feature", "properties": {"norad_id": 40011, "name": "HODOYOSHI-4", "group": "resource", "lat": 56.662848317353486, "lon": 163.76254561176802, "alt_km": 613.5518304105308, "timestamp": "2025-12-12T11:38:31.073304+00:00", "meta": {"OBJECT_NAME": "HODOYOSHI-4", "OBJECT_ID": "2014-033B", "EPOCH": "2025-12-12T03:18:40.222656", "MEAN_MOTION": 14.87475883, "ECCENTRICITY": 0.002324, "INCLINATION": 97.5416, "RA_OF_ASC_NODE": 175.0514, "ARG_OF_PERICENTER": 202.7372, "MEAN_ANOMALY": 157.2818, "EPHEMERIS_TYPE": 0, "CLASSIFICATION_TYPE": "U", "NORAD_CAT_ID": 40011, "ELEMENT_SET_NO": 999, "REV_AT_EPOCH": 62099, "BSTAR": 0.00025172, "MEAN_MOTION_DOT": 2.239e-05, "MEAN_MOTION_DDOT": 0}, "tle": {"line1": "1 40011U 14033B   25346.13796554  .00002239  00000+0  25172-3 0  9992", "line2": "2 40011  97.5416 175.0514 0023240 202.7372 157.2818 14.87475883620990"}}, "geometry": {"type": "Point", "coordinates": [163.76254561176802, 56.662848317353486]}}, {"type": "Feature", "properties": {"norad_id": 40013, "name": "DEIMOS-2", "group": "resource", "lat": -29.693314118011287, "lon": 37.92348087411205, "alt_km": 594.9030995031126, "timestamp": "2025-12-12T11:38:31.073315+00:00", "meta": {"OBJECT_NAME": "DEIMOS-2", "OBJECT_ID": "2014-033D", "EPOCH": "2025-12-12T04:16:14.573280", "MEAN_MOTION": 14.92968364, "ECCENTRICITY": 8.28e-05, "INCLINATION": 97.6059, "RA_OF_ASC_NODE": 221.9966, "ARG_OF_PERICENTER": 96.0329, "MEAN_ANOMALY": 264.0986, "EPHEMERIS_TYPE": 0, "CLASSIFICATION_TYPE": "U", "NORAD_CAT_ID": 40013, "ELEMENT_SET_NO": 999, "REV_AT_EPOCH": 60981, "BSTAR": 0.0002916, "MEAN_MOTION_DOT": 2.974e-05, "MEAN_MOTION_DDOT": 0}, "tle": {"line1": "1 40013U 14033D   25346.17794645  .00002974  00000+0  29160-3 0  9994", "line2": "2 40013  97.6059 221.9966 0000828  96.0329 264.0986 14.92968364609819"}}, "geometry": {"type": "Point", "coordinates": [37.92348087411205, -29.693314118011287]}}, {"type": "Feature", "properties": {"norad_id": 40015, "name": "HODOYOSHI-3", "group": "resource", "lat": -14.141065415160094, "lon": 154.26385583598068, "alt_km": 621.5156921615244, "timestamp": "2025-12-12T11:38:31.073325+00:00", "meta": {"OBJECT_NAME": "HODOYOSHI-3", "OBJECT_ID": "2014-033F", "EPOCH": "2025-12-12T00:23:04.432128", "MEAN_MOTION": 14.84802941, "ECCENTRICITY": 0.0031888, "INCLINATION": 97.6199, "RA_OF_ASC_NODE": 151.8825, "ARG_OF_PERICENTER": 250.4066, "MEAN_ANOMALY": 109.3706, "EPHEMERIS_TYPE": 0, "CLASSIFICATION_TYPE": "U", "NORAD_CAT_ID": 40015, "ELEMENT_SET_NO": 999, "REV_AT_EPOCH": 61984, "BSTAR": 0.00033502, "MEAN_MOTION_DOT": 2.817e-05, "MEAN_MOTION_DDOT": 0}, "tle": {"line1": "1 40015U 14033F   25346.01602352  .00002817  00000+0  33502-3 0  9993", "line2": "2 40015  97.6199 151.8825 0031888 250.4066 109.3706 14.84802941619849"}}, "geometry": {"type": "Point", "coordinates": [154.26385583598068, -14.141065415160094]}}, {"type": "Feature", "properties": {"norad_id": 40053, "name": "SPOT 7", "group": "resource", "lat": 81.9002256883722, "lon": -43.290080284993195, "alt_km": 682.2466024808573, "timestamp": "2025-12-12T11:38:31.073335+00:00", "meta": {"OBJECT_NAME": "SPOT 7", "OBJECT_ID": "2014-034A", "EPOCH": "2025-12-12T04:39:16.034112", "MEAN_MOTION": 14.6073333, "ECCENTRICITY": 0.0001547, "INCLINATION": 98.0903, "RA_OF_ASC_NODE": 48.2815, "ARG_OF_PERICENTER": 88.2328, "MEAN_ANOMALY": 271.905, "EPHEMERIS_TYPE": 0, "CLASSIFICATION_TYPE": "U", "NORAD_CAT_ID": 40053, "ELEMENT_SET_NO": 999, "REV_AT_EPOCH": 60983, "BSTAR": 0.00022927, "MEAN_MOTION_DOT": 1.072e-05, "MEAN_MOTION_DDOT": 0}, "tle": {"line1": "1 40053U 14034A   25346.19393558  .00001072  00000+0  22927-3 0  9991", "line2": "2 40053  98.0903  48.2815 0001547  88.2328 271.9050 14.60733330609839"}}, "geometry": {"type": "Point", "coordinates": [-43.290080284993195, 81.9002256883722]}}, {"type": "Feature", "properties": {"norad_id": 40072, "name": "SKYSAT-B", "group": "resource", "lat": 0.7250183757784039, "lon": -69.92900811114755, "alt_km": 612.8814908332524, "timestamp": "2025-12-12T11:38:31.073345+00:00", "meta": {"OBJECT_NAME": "SKYSAT-B", "OBJECT_ID": "2014-037D", "EPOCH": "2025-12-11T17:52:40.490976", "MEAN_MOTION": 14.87321925, "ECCENTRICITY": 0.00060726, "INCLINATION": 98.3607, "RA_OF_ASC_NODE": 289.3985, "ARG_OF_PERICENTER": 153.0618, "MEAN_ANOMALY": 207.0912, "EPHEMERIS_TYPE": 0, "CLASSIFICATION_TYPE": "U", "NORAD_CAT_ID": 40072, "ELEMENT_SET_NO": 999, "REV_AT_EPOCH": 61809, "BSTAR": 0.00033654656, "MEAN_MOTION_DOT": 2.978e-05, "MEAN_MOTION_DDOT": 0}, "tle": {"line1": "1 40072U 14037D   25345.74491309  .00002978  00000+0  33655-3 0  9994", "line2": "2 40072  98.3607 289.3985 0006072 153.0618 207.0912 14.87321925618098"}}, "geometry": {"type": "Point", "coordinates": [-69.92900811114755, 0.7250183757784039]}}]}